COSMOS 2361 [-]         
1 25590U 98076A   19291.84342699  .00000038  00000-0  24388-4 0  9998
2 25590  82.9377 205.0442 0032502  33.9446 357.4078 13.72969912 42770
COSMOS 2378 [-]         
1 26818U 01023A   19292.05654495  .00000016  00000-0  11436-5 0  9999
2 26818  82.9298 224.6930 0033042 344.4015  15.6125 13.73937803920784
COSMOS 2389 [-]         
1 27436U 02026A   19291.77603142  .00000031  00000-0  16398-4 0  9999
2 27436  82.9525 169.6687 0045587 208.1814 194.7031 13.74939183872764
COSMOS 2398 [-]         
1 27818U 03023A   19292.06278199  .00000039  00000-0  26722-4 0  9994
2 27818  82.9445 127.9146 0030101 231.2412 128.6050 13.72172315820037
COSMOS 2407 [+]         
1 28380U 04028A   19292.07330348  .00000004  00000-0 -10894-4 0  9997
2 28380  82.9587  76.2468 0038262 215.0088 144.8552 13.76069502765433
COSMOS 2414 [+]         
1 28521U 05002A   19291.89483201  .00000016  00000-0  31948-6 0  9990
2 28521  82.9461  83.4620 0041657  66.2511 294.3013 13.87614534746671
COSMOS 2429 [-]         
1 32052U 07038A   19291.85312082  .00000048  00000-0  34340-4 0  9991
2 32052  82.9842 198.8609 0038072 187.4958 172.5634 13.74919282607254
COSMOS 2454 [-]         
1 35635U 09039A   19292.06627237  .00000029  00000-0  10720-4 0  9994
2 35635  82.9536  71.4906 0020084  23.2929 336.9137 13.89644187519643
COSMOS 2463 [+]         
1 36519U 10017A   19292.20592837 -.00000082  00000-0 -10787-3 0  9990
2 36519  82.9605 236.8902 0037486  41.4047 318.9940 13.71436689474528
